{"type": "FeatureCollection", "features": [ {"type": "Feature", "properties": {"norad_id": 36551, "name": "COSMOS 2251 DEB", "group": "cosmos-2251-debris", "lat": 2.1530023695729525, "lon": 162.69573304817965, "alt_km": 572.9342736828294, "timestamp": "2025-12-27T23:26:37.761402+00:00", "meta": {"OBJECT_NAME": "COSMOS 2251 DEB", "OBJECT_ID": "1993-036BDM", "EPOCH": "2025-12-23T08:25:21.362880", "MEAN_MOTION": 15.02881194, "ECCENTRICITY": 0.00509794, "INCLINATION": 73.8872, "RA_OF_ASC_NODE": 352.8451, "ARG_OF_PERICENTER": 300.1612, "MEAN_ANOMALY": 59.4529, "EPHEMERIS_TYPE": 0, "CLASSIFICATION_TYPE": "U", "NORAD_CAT_ID": 36551, "ELEMENT_SET_NO": 999, "REV_AT_EPOCH": 67091, "BSTAR": 0.0013038883, "MEAN_MOTION_DOT": 0.00017997, "MEAN_MOTION_DDOT": 0}, "tle": {"line1": "1 36551U 93036BDM 25357.35094170  .00017997  00000+0  13039-2 0  9992", "line2": "2 36551  73.8872 352.8451 0050979 300.1612  59.4529 15.02881194670914"}}, "geometry": {"type": "Point", "coordinates": [162.69573304817965, 2.1530023695729525]}}, {"type": "Feature", "properties": {"norad_id": 36557, "name": "COSMOS 2251 DEB", "group": "cosmos-2251-debris", "lat": -73.22698924044889, "lon": 23.77263750794509, "alt_km": 625.4031508626858, "timestamp": "2025-12-27T23:26:37.761412+00:00", "meta": {"OBJECT_NAME": "COSMOS 2251 DEB", "OBJECT_ID": "1993-036BDT", "EPOCH": "2025-12-25T13:22:56.127648", "MEAN_MOTION": 14.7886677, "ECCENTRICITY": 0.0022188, "INCLINATION": 73.9787, "RA_OF_ASC_NODE": 100.973, "ARG_OF_PERICENTER": 254.7091, "MEAN_ANOMALY": 105.1632, "EPHEMERIS_TYPE": 0, "CLASSIFICATION_TYPE": "U", "NORAD_CAT_ID": 36557, "ELEMENT_SET_NO": 999, "REV_AT_EPOCH": 34086, "BSTAR": 0.0038011, "MEAN_MOTION_DOT": 0.00028197, "MEAN_MOTION_DDOT": 0}, "tle": {"line1": "1 36557U 93036BDT 25359.55759407  .00028197  00000+0  38011-2 0  9994", "line2": "2 36557  73.9787 100.9730 0022188 254.7091 105.1632 14.78866770340861"}}, "geometry": {"type": "Point", "coordinates": [23.77263750794509, -73.22698924044889]}}, {"type": "Feature", "properties": {"norad_id": 36558, "name": "COSMOS 2251 DEB", "group": "cosmos-2251-debris", "lat": 21.475690650553837, "lon": 132.15713024380847, "alt_km": 715.9636934075934, "timestamp": "2025-12-27T23:26:37.761422+00:00", "meta": {"OBJECT_NAME": "COSMOS 2251 DEB", "OBJECT_ID": "1993-036BDU", "EPOCH": "2025-12-27T01:53:45.462624", "MEAN_MOTION": 14.55469279, "ECCENTRICITY": 0.00125221, "INCLINATION": 74.0428, "RA_OF_ASC_NODE": 127.3932, "ARG_OF_PERICENTER": 216.658, "MEAN_ANOMALY": 143.3728, "EPHEMERIS_TYPE": 0, "CLASSIFICATION_TYPE": "U", "NORAD_CAT_ID": 36558, "ELEMENT_SET_NO": 999, "REV_AT_EPOCH": 85477, "BSTAR": 0.0011833982, "MEAN_MOTION_DOT": 5.129e-05, "MEAN_MOTION_DDOT": 0}, "tle": {"line1": "1 36558U 93036BDU 25361.07899841  .00005129  00000+0  11834-2 0  9996", "line2": "2 36558  74.0428 127.3932 0012522 216.6580 143.3728 14.55469279854772"}}, "geometry": {"type": "Point", "coordinates": [132.15713024380847, 21.475690650553837]}}, {"type": "Feature", "properties": {"norad_id": 36559, "name": "COSMOS 2251 DEB", "group": "cosmos-2251-debris", "lat": 17.604740525909474, "lon": 158.5917469970079, "alt_km": 1073.3282618495086, "timestamp": "2025-12-27T23:26:37.761432+00:00", "meta": {"OBJECT_NAME": "COSMOS 2251 DEB", "OBJECT_ID": "1993-036BDV", "EPOCH": "2025-12-25T22:30:17.877024", "MEAN_MOTION": 13.95341265, "ECCENTRICITY": 0.0262607, "INCLINATION": 74.131, "RA_OF_ASC_NODE": 347.2543, "ARG_OF_PERICENTER": 16.1375, "MEAN_ANOMALY": 344.792, "EPHEMERIS_TYPE": 0, "CLASSIFICATION_TYPE": "U", "NORAD_CAT_ID": 36559, "ELEMENT_SET_NO": 999, "REV_AT_EPOCH": 81278, "BSTAR": 0.0044342, "MEAN_MOTION_DOT": 7.996e-05, "MEAN_MOTION_DDOT": 0}, "tle": {"line1": "1 36559U 93036BDV 25359.93770691  .00007996  00000+0  44342-2 0  9994", "line2": "2 36559  74.1310 347.2543 0262607  16.1375 344.7920 13.95341265812784"}}, "geometry": {"type": "Point", "coordinates": [158.5917469970079, 17.604740525909474]}}, {"type": "Feature", "properties": {"norad_id": 36614, "name": "COSMOS 2251 DEB", "group": "cosmos-2251-debris", "lat": -47.00321038253349, "lon": 127.57514419196278, "alt_km": 699.1585205069741, "timestamp": "2025-12-27T23:26:37.761442+00:00", "meta": {"OBJECT_NAME": "COSMOS 2251 DEB", "OBJECT_ID": "1993-036BEC", "EPOCH": "2025-12-25T19:03:45.124128", "MEAN_MOTION": 14.60436705, "ECCENTRICITY": 0.00155454, "INCLINATION": 74.0219, "RA_OF_ASC_NODE": 149.6407, "ARG_OF_PERICENTER": 219.5991, "MEAN_ANOMALY": 140.404, "EPHEMERIS_TYPE": 0, "CLASSIFICATION_TYPE": "U", "NORAD_CAT_ID": 36614, "ELEMENT_SET_NO": 999, "REV_AT_EPOCH": 65803, "BSTAR": 0.0017518768, "MEAN_MOTION_DOT": 8.483e-05, "MEAN_MOTION_DDOT": 0}, "tle": {"line1": "1 36614U 93036BEC 25359.79427227  .00008483  00000+0  17519-2 0  9992", "line2": "2 36614  74.0219 149.6407 0015545 219.5991 140.4040 14.60436705658033"}}, "geometry": {"type": "Point", "coordinates": [127.57514419196278, -47.00321038253349]}}, {"type": "Feature", "properties": {"norad_id": 36622, "name": "COSMOS 2251 DEB", "group": "cosmos-2251-debris", "lat": 13.425758519700613, "lon": -68.32622140361052, "alt_km": 634.6590960076928, "timestamp": "2025-12-27T23:26:37.761452+00:00", "meta": {"OBJECT_NAME": "COSMOS 2251 DEB", "OBJECT_ID": "1993-036BEL", "EPOCH": "2025-12-27T01:32:45.159648", "MEAN_MOTION": 14.76339288, "ECCENTRICITY": 0.0068944, "INCLINATION": 74.014, "RA_OF_ASC_NODE": 117.3863, "ARG_OF_PERICENTER": 250.0561, "MEAN_ANOMALY": 109.3178, "EPHEMERIS_TYPE": 0, "CLASSIFICATION_TYPE": "U", "NORAD_CAT_ID": 36622, "ELEMENT_SET_NO": 999, "REV_AT_EPOCH": 66961, "BSTAR": 0.00095269728, "MEAN_MOTION_DOT": 6.846e-05, "MEAN_MOTION_DDOT": 0}, "tle": {"line1": "1 36622U 93036BEL 25361.06441157  .00006846  00000+0  95270-3 0  9994", "line2": "2 36622  74.0140 117.3863 0068944 250.0561 109.3178 14.76339288669614"}}, "geometry": {"type": "Point", "coordinates": [-68.32622140361052, 13.425758519700613]}}, {"type": "Feature", "properties": {"norad_id": 36632, "name": "COSMOS 2251 DEB", "group": "cosmos-2251-debris", "lat": -40.97513395281337, "lon": -110.41728451795227, "alt_km": 739.3152513434543, "timestamp": "2025-12-27T23:26:37.761462+00:00", "meta": {"OBJECT_NAME": "COSMOS 2251 DEB", "OBJECT_ID": "1993-036BEW", "EPOCH": "2025-12-23T01:31:35.391648", "MEAN_MOTION": 14.43225962, "ECCENTRICITY": 0.00327185, "INCLINATION": 74.0013, "RA_OF_ASC_NODE": 273.1539, "ARG_OF_PERICENTER": 18.5865, "MEAN_ANOMALY": 341.6478, "EPHEMERIS_TYPE": 0, "CLASSIFICATION_TYPE": "U", "NORAD_CAT_ID": 36632, "ELEMENT_SET_NO": 999, "REV_AT_EPOCH": 65364, "BSTAR": 0.0008144408, "MEAN_MOTION_DOT": 2.732e-05, "MEAN_MOTION_DDOT": 0}, "tle": {"line1": "1 36632U 93036BEW 25357.06360407  .00002732  00000+0  81444-3 0  9996", "line2": "2 36632  74.0013 273.1539 0032718  18.5865 341.6478 14.43225962653646"}}, "geometry": {"type": "Point", "coordinates": [-110.41728451795227, -40.97513395281337]}}, {"type": "Feature", "properties": {"norad_id": 37084, "name": "COSMOS 2251 DEB", "group": "cosmos-2251-debris", "lat": -66.27129250627432, "lon": -8.927618337254623, "alt_km": 522.0299228080885, "timestamp": "2025-12-27T23:26:37.761472+00:00", "meta": {"OBJECT_NAME": "COSMOS 2251 DEB", "OBJECT_ID": "1993-036BFE", "EPOCH": "2025-12-24T15:57:16.760448", "MEAN_MOTION": 15.01180609, "ECCENTRICITY": 0.00968203, "INCLINATION": 74.0273, "RA_OF_ASC_NODE": 137.155, "ARG_OF_PERICENTER": 214.9103, "MEAN_ANOMALY": 144.5712, "EPHEMERIS_TYPE": 0, "CLASSIFICATION_TYPE": "U", "NORAD_CAT_ID": 37084, "ELEMENT_SET_NO": 999, "REV_AT_EPOCH": 66446, "BSTAR": 0.00075136281, "MEAN_MOTION_DOT": 0.00010628, "MEAN_MOTION_DDOT": 0}, "tle": {"line1": "1 37084U 93036BFE 25358.66477732  .00010628  00000+0  75136-3 0  9999", "line2": "2 37084  74.0273 137.1550 0096820 214.9103 144.5712 15.01180609664465"}}, "geometry": {"type": "Point", "coordinates": [-8.927618337254623, -66.27129250627432]}}, {"type": "Feature", "properties": {"norad_id": 37085, "name": "COSMOS 2251 DEB", "group": "cosmos-2251-debris", "lat": 59.36049995278191, "lon": -148.11156261813596, "alt_km": 416.0802751456049, "timestamp": "2025-12-27T23:26:37.761482+00:00", "meta": {"OBJECT_NAME": "COSMOS 2251 DEB", "OBJECT_ID": "1993-036BFF", "EPOCH": "2025-12-27T04:30:40.048128", "MEAN_MOTION": 15.44029976, "ECCENTRICITY": 0.0023501, "INCLINATION": 73.936, "RA_OF_ASC_NODE": 184.5036, "ARG_OF_PERICENTER": 21.9317, "MEAN_ANOMALY": 338.2892, "EPHEMERIS_TYPE": 0, "CLASSIFICATION_TYPE": "U", "NORAD_CAT_ID": 37085, "ELEMENT_SET_NO": 999, "REV_AT_EPOCH": 67360, "BSTAR": 0.0022449, "MEAN_MOTION_DOT": 0.00104869, "MEAN_MOTION_DDOT": 0}, "tle": {"line1": "1 37085U 93036BFF 25361.18796352  .00104869  00000+0  22449-2 0  9992", "line2": "2 37085  73.9360 184.5036 0023501  21.9317 338.2892 15.44029976673608"}}, "geometry": {"type": "Point", "coordinates": [-148.11156261813596, 59.36049995278191]}}, {"type": "Feature", "properties": {"norad_id": 37089, "name": "COSMOS 2251 DEB", "group": "cosmos-2251-debris", "lat": -27.327226836861566, "lon": 108.4809726995826, "alt_km": 763.9493069089085, "timestamp": "2025-12-27T23:26:37.761493+00:00", "meta": {"OBJECT_NAME": "COSMOS 2251 DEB", "OBJECT_ID": "1993-036BFK", "EPOCH": "2025-12-21T15:34:23.713248", "MEAN_MOTION": 14.53124316, "ECCENTRICITY": 0.01348359, "INCLINATION": 74.0376, "RA_OF_ASC_NODE": 128.9285, "ARG_OF_PERICENTER": 227.2791, "MEAN_ANOMALY": 131.6959, "EPHEMERIS_TYPE": 0, "CLASSIFICATION_TYPE": "U", "NORAD_CAT_ID": 37089, "ELEMENT_SET_NO": 999, "REV_AT_EPOCH": 66239, "BSTAR": 0.0025920124, "MEAN_MOTION_DOT": 0.00012082, "MEAN_MOTION_DDOT": 0}, "tle": {"line1": "1 37089U 93036BFK 25355.64888557  .00012082  00000+0  25920-2 0  9991", "line2": "2 37089  74.0376 128.9285 0134835 227.2791 131.6959 14.53124316662395"}}, "geometry": {"type": "Point", "coordinates": [108.4809726995826, -27.327226836861566]}}]}